{
  "type": "FeatureCollection",
  "features": [
    {
      "type": "Feature",
      "properties": {
        "norad_id": 33765,
        "name": "COSMOS 2251 DEB",
        "group": "cosmos-2251-debris",
        "lat": -6.66810194154195,
        "lon": -26.631329276552844,
        "alt_km": 512.1805025108533,
        "timestamp": "2025-12-23T05:02:12.422361+00:00",
        "meta_object_name": "COSMOS 2251 DEB",
        "meta_object_id": "1993-036N",
        "meta_epoch": "2025-12-22T20:47:53.687040",
        "meta_mean_motion": 15.10518696,
        "meta_eccentricity": 0.00649136,
        "meta_inclination": 74.0088,
        "meta_ra_of_asc_node": 152.1574,
        "meta_arg_of_pericenter": 242.6651,
        "meta_mean_anomaly": 238.8801,
        "meta_ephemeris_type": 0,
        "meta_classification_type": "U",
        "meta_norad_cat_id": 33765,
        "meta_element_set_no": 999,
        "meta_rev_at_epoch": 89771,
        "meta_bstar": 0.0017156329,
        "meta_mean_motion_dot": 0.00029817,
        "meta_mean_motion_ddot": 0,
        "tle_line1": "1 33765U 93036N   25356.86659360  .00029817  00000+0  17156-2 0  9997",
        "tle_line2": "2 33765  74.0088 152.1574 0064913 242.6651 238.8801 15.10518696897711"
      },
      "geometry": {
        "type": "Point",
        "coordinates": [
          -26.631329276552844,
          -6.66810194154195
        ]
      }
    },
    {
      "type": "Feature",
      "properties": {
        "norad_id": 33766,
        "name": "COSMOS 2251 DEB",
        "group": "cosmos-2251-debris",
        "lat": 72.95711941820804,
        "lon": -176.43284170984256,
        "alt_km": 795.5897776069642,
        "timestamp": "2025-12-23T05:02:12.422372+00:00",
        "meta_object_name": "COSMOS 2251 DEB",
        "meta_object_id": "1993-036P",
        "meta_epoch": "2025-12-22T16:56:12.547392",
        "meta_mean_motion": 14.3496153,
        "meta_eccentricity": 0.00646756,
        "meta_inclination": 74.1859,
        "meta_ra_of_asc_node": 116.8817,
        "meta_arg_of_pericenter": 317.5203,
        "meta_mean_anomaly": 42.0954,
        "meta_ephemeris_type": 0,
        "meta_classification_type": "U",
        "meta_norad_cat_id": 33766,
        "meta_element_set_no": 999,
        "meta_rev_at_epoch": 87888,
        "meta_bstar": 0.00045393641,
        "meta_mean_motion_dot": 1.297e-05,
        "meta_mean_motion_ddot": 0,
        "tle_line1": "1 33766U 93036P   25356.70570078  .00001297  00000+0  45394-3 0  9997",
        "tle_line2": "2 33766  74.1859 116.8817 0064675 317.5203  42.0954 14.34961530878881"
      },
      "geometry": {
        "type": "Point",
        "coordinates": [
          -176.43284170984256,
          72.95711941820804
        ]
      }
    },
    {
      "type": "Feature",
      "properties": {
        "norad_id": 33768,
        "name": "COSMOS 2251 DEB",
        "group": "cosmos-2251-debris",
        "lat": 10.712230997158505,
        "lon": -153.93210930348076,
        "alt_km": 776.4568543625464,
        "timestamp": "2025-12-23T05:02:12.422382+00:00",
        "meta_object_name": "COSMOS 2251 DEB",
        "meta_object_id": "1993-036R",
        "meta_epoch": "2025-12-22T20:38:18.111840",
        "meta_mean_motion": 13.58463227,
        "meta_eccentricity": 0.03667779,
        "meta_inclination": 74.0665,
        "meta_ra_of_asc_node": 203.5348,
        "meta_arg_of_pericenter": 359.0717,
        "meta_mean_anomaly": 100.575,
        "meta_ephemeris_type": 0,
        "meta_classification_type": "U",
        "meta_norad_cat_id": 33768,
        "meta_element_set_no": 999,
        "meta_rev_at_epoch": 83433,
        "meta_bstar": 0.00030048284,
        "meta_mean_motion_dot": 3.18e-06,
        "meta_mean_motion_ddot": 0,
        "tle_line1": "1 33768U 93036R   25356.85993185  .00000318  00000+0  30048-3 0  9996",
        "tle_line2": "2 33768  74.0665 203.5348 0366777 359.0717 100.5750 13.58463227834330"
      },
      "geometry": {
        "type": "Point",
        "coordinates": [
          -153.93210930348076,
          10.712230997158505
        ]
      }
    },
    {
      "type": "Feature",
      "properties": {
        "norad_id": 33779,
        "name": "COSMOS 2251 DEB",
        "group": "cosmos-2251-debris",
        "lat": -31.891089332662553,
        "lon": 140.1621690109732,
        "alt_km": 673.6852494742989,
        "timestamp": "2025-12-23T05:02:12.422393+00:00",
        "meta_object_name": "COSMOS 2251 DEB",
        "meta_object_id": "1993-036U",
        "meta_epoch": "2025-12-22T19:57:24.166944",
        "meta_mean_motion": 14.70693158,
        "meta_eccentricity": 0.00161418,
        "meta_inclination": 74.0449,
        "meta_ra_of_asc_node": 151.1498,
        "meta_arg_of_pericenter": 184.0377,
        "meta_mean_anomaly": 300.3473,
        "meta_ephemeris_type": 0,
        "meta_classification_type": "U",
        "meta_norad_cat_id": 33779,
        "meta_element_set_no": 999,
        "meta_rev_at_epoch": 88676,
        "meta_bstar": 0.0025398908,
        "meta_mean_motion_dot": 0.00015511,
        "meta_mean_motion_ddot": 0,
        "tle_line1": "1 33779U 93036U   25356.83152971  .00015511  00000+0  25399-2 0  9999",
        "tle_line2": "2 33779  74.0449 151.1498 0016141 184.0377 300.3473 14.70693158886760"
      },
      "geometry": {
        "type": "Point",
        "coordinates": [
          140.1621690109732,
          -31.891089332662553
        ]
      }
    },
    {
      "type": "Feature",
      "properties": {
        "norad_id": 33782,
        "name": "COSMOS 2251 DEB",
        "group": "cosmos-2251-debris",
        "lat": 32.12833289303098,
        "lon": -91.45854373052681,
        "alt_km": 750.0458657587087,
        "timestamp": "2025-12-23T05:02:12.422403+00:00",
        "meta_object_name": "COSMOS 2251 DEB",
        "meta_object_id": "1993-036X",
        "meta_epoch": "2025-12-22T17:21:16.172640",
        "meta_mean_motion": 14.40471003,
        "meta_eccentricity": 0.00210782,
        "meta_inclination": 74.0329,
        "meta_ra_of_asc_node": 259.0833,
        "meta_arg_of_pericenter": 322.6294,
        "meta_mean_anomaly": 67.6356,
        "meta_ephemeris_type": 0,
        "meta_classification_type": "U",
        "meta_norad_cat_id": 33782,
        "meta_element_set_no": 999,
        "meta_rev_at_epoch": 88270,
        "meta_bstar": 0.00030695888,
        "meta_mean_motion_dot": 9.52e-06,
        "meta_mean_motion_ddot": 0,
        "tle_line1": "1 33782U 93036X   25356.72310385  .00000952  00000+0  30696-3 0  9996",
        "tle_line2": "2 33782  74.0329 259.0833 0021078 322.6294  67.6356 14.40471003882708"
      },
      "geometry": {
        "type": "Point",
        "coordinates": [
          -91.45854373052681,
          32.12833289303098
        ]
      }
    },
    {
      "type": "Feature",
      "properties": {
        "norad_id": 33785,
        "name": "COSMOS 2251 DEB",
        "group": "cosmos-2251-debris",
        "lat": -55.52466536733346,
        "lon": 14.466183346219966,
        "alt_km": 652.2694525528832,
        "timestamp": "2025-12-23T05:02:12.422413+00:00",
        "meta_object_name": "COSMOS 2251 DEB",
        "meta_object_id": "1993-036AA",
        "meta_epoch": "2025-12-22T13:42:36.152064",
        "meta_mean_motion": 14.70690222,
        "meta_eccentricity": 0.00231908,
        "meta_inclination": 73.8666,
        "meta_ra_of_asc_node": 40.6508,
        "meta_arg_of_pericenter": 338.2242,
        "meta_mean_anomaly": 183.1147,
        "meta_ephemeris_type": 0,
        "meta_classification_type": "U",
        "meta_norad_cat_id": 33785,
        "meta_element_set_no": 999,
        "meta_rev_at_epoch": 88651,
        "meta_bstar": 0.0020448971,
        "meta_mean_motion_dot": 0.000125,
        "meta_mean_motion_ddot": 0,
        "tle_line1": "1 33785U 93036AA  25356.57125176  .00012500  00000+0  20449-2 0  9990",
        "tle_line2": "2 33785  73.8666  40.6508 0023190 338.2242 183.1147 14.70690222886512"
      },
      "geometry": {
        "type": "Point",
        "coordinates": [
          14.466183346219966,
          -55.52466536733346
        ]
      }
    },
    {
      "type": "Feature",
      "properties": {
        "norad_id": 33789,
        "name": "COSMOS 2251 DEB",
        "group": "cosmos-2251-debris",
        "lat": -70.57098426603092,
        "lon": 15.541467584495253,
        "alt_km": 960.9358712396142,
        "timestamp": "2025-12-23T05:02:12.422423+00:00",
        "meta_object_name": "COSMOS 2251 DEB",
        "meta_object_id": "1993-036AE",
        "meta_epoch": "2025-12-22T16:11:25.511712",
        "meta_mean_motion": 13.8881693,
        "meta_eccentricity": 0.02397063,
        "meta_inclination": 74.0644,
        "meta_ra_of_asc_node": 70.5452,
        "meta_arg_of_pericenter": 183.9896,
        "meta_mean_anomaly": 299.4034,
        "meta_ephemeris_type": 0,
        "meta_classification_type": "U",
        "meta_norad_cat_id": 33789,
        "meta_element_set_no": 999,
        "meta_rev_at_epoch": 85233,
        "meta_bstar": 0.00059510814,
        "meta_mean_motion_dot": 8.81e-06,
        "meta_mean_motion_ddot": 0,
        "tle_line1": "1 33789U 93036AE  25356.67460083  .00000881  00000+0  59511-3 0  9996",
        "tle_line2": "2 33789  74.0644  70.5452 0239706 183.9896 299.4034 13.88816930852330"
      },
      "geometry": {
        "type": "Point",
        "coordinates": [
          15.541467584495253,
          -70.57098426603092
        ]
      }
    }
  ]
}